OPTICUBE 04             
1 41851U 16067D   25039.95215903  .00004518  00000+0  31390-3 0  9998
2 41851  98.0888 221.6636 0016738 346.5273  13.5503 15.05984415450832
AEROCUBE 8D             
1 41852U 16067E   25039.49927244  .00009983  00000+0  54378-3 0  9998
2 41852  98.1123 228.9248 0005106  37.1415 323.0168 15.14629937451082
AEROCUBE 8C             
1 41853U 16067F   25039.57890287  .00012046  00000+0  65400-3 0  9996
2 41853  98.0957 227.0398 0006459 326.4812  33.6009 15.14684475451086
PROMETHEUS 2-1          
1 41854U 16067G   25040.10443203  .00041873  00000+0  12217-2 0  9997
2 41854  98.0911 240.4833 0008989 323.4941  36.5687 15.35187392451847
PROMETHEUS 2-3          
1 41855U 16067H   25040.11098558  .00040439  00000+0  11832-2 0  9997
2 41855  98.0855 239.7535 0007872 332.2259  27.8561 15.35115760451849
CORVUS BC2              
1 42846U 17042X   25040.01649912  .00005255  00000+0  41092-3 0  9996
2 42846  97.3687 218.5557 0013279 352.2200   7.8817 15.01400365412930
CORVUS BC1              
1 42847U 17042Y   25040.01984578  .00005857  00000+0  45527-3 0  9992
2 42847  97.3710 218.9992 0012019 329.7560  30.2971 15.01601485412953
MIRATA                  
1 43015U 17073C   25040.22072862  .00045083  00000+0  12262-2 0  9995
2 43015  97.5619 291.2486 0116532 156.9203 203.7334 15.30725329392281
MAKERSAT 0              
1 43016U 17073D   25039.92041853  .00019602  00000+0  88652-3 0  9992
2 43016  97.5406 279.5770 0160740 196.0747 163.5350 15.10058110391497
SIRION PATHFINDER-2     
1 43759U 18099B   25039.89394729  .00008128  00000+0  53469-3 0  9993
2 43759  97.4976  95.7642 0009763 193.1198 166.9778 15.07784181338114
CORVUS BC4              
1 43767U 18099K   25040.07849569  .00006872  00000+0  46867-3 0  9999
2 43767  97.4801  92.2999 0008103 254.4106 105.6227 15.06514075338003
MOVE-II                 
1 43780U 18099Y   25040.13904904  .00063773  00000+0  15353-2 0  9994
2 43780  97.4853 110.2181 0004047 222.2442 137.8493 15.41044823339076
SPACEBEE-7              
1 43816U 18099BL  25039.94025877  .00031140  00000+0  11892-2 0  9991
2 43816  97.5147 108.6589 0007372 179.1192 181.0060 15.26555416338339
SHIELDS 1               
1 43850U 18104B   25039.76270883  .00032526  00000+0  54546-3 0  9998
2 43850  85.0194 121.0310 0006845 243.5474 116.5082 15.51642619342663
SONATE                  
1 44400U 19038Q   25040.51758795  .00062004  00000+0  82235-3 0  9995
2 44400  97.7096  54.9451 0008391 348.2086  11.8971 15.58020377310708
DUCHIFAT-3              
1 44854U 19089C   25040.31663099  .00036676  00000+0  11004-2 0  9995
2 44854  36.9496  32.6470 0010536 265.8093  94.1456 15.33505682284397
M2 PATHFINDER           
1 45727U 20037E   25039.45529606  .00005758  00000+0  45945-3 0  9997
2 45727  97.7922 221.3989 0013016  33.7692 326.4358 15.00624129251333
NETSAT-4                
1 46504U 20068U   25039.85279167  .00020623  00000+0  82653-3 0  9998
2 46504  97.8336  11.4135 0005608 259.4813 100.5792 15.25046207240117
NETSAT-3                
1 46505U 20068V   25039.87685754  .00017412  00000+0  71912-3 0  9992
2 46505  97.8322  10.6310 0005302 275.3221  84.7410 15.24075557240096
NETSAT-1                
1 46506U 20068W   25039.85749854  .00015017  00000+0  68993-3 0  9997
2 46506  97.8348   9.2136 0004946 295.8906  64.1818 15.20478196239998
NETSAT-2                
1 46507U 20068X   25040.34297924  .00017454  00000+0  70486-3 0  9997
2 46507  97.8325  11.4801 0003873 299.6857  60.3993 15.24835041240133
WILDTRACKCUBE-SIMBA     
1 47941U 21022K   25040.51011453  .00028931  00000+0  82318-3 0  9990
2 47941  97.4371 303.0556 0013140  35.1112 325.0995 15.36005071214707
GRBALPHA                
1 47959U 21022AD  25040.48874046  .00069114  00000+0  11473-2 0  9991
2 47959  97.4342 307.9309 0009678  30.0743 330.1063 15.51825543213846
LEDSAT                  
1 49069U 21073D   25040.20056412  .00042858  00000+0  94123-3 0  9990
2 49069  97.4057 118.2109 0013123 156.6622 203.5224 15.43819586192765
ROBUSTA-1F (MTCUBE 2)   
1 53109U 22080E   25038.10515183 -.00000003  00000+0  00000+0 0  9994
2 53109  70.1251 110.4357 0008322  35.5897 324.5316  6.42584060 60251
SITRO-AIS 5 (KATYS)     
1 57176U 23091L   25040.53091568  .00012621  00000+0  65520-3 0  9991
2 57176  97.5789  97.4665 0015819  31.1295 329.0872 15.16151469 89361
SITRO-AIS 6 (CHIRKIN)   
1 57192U 23091AC  25040.31446375  .00011382  00000+0  59240-3 0  9990
2 57192  97.5786  97.2772 0015697  31.3899 328.8267 15.16087777 89331
SITRO-AIS 8 (ANOKHIN)   
1 57193U 23091AD  25040.31889680  .00012426  00000+0  62812-3 0  9990
2 57193  97.5784  97.5650 0015232  31.5911 328.6233 15.17101514 89350
SITRO-AIS 7 (FARTUSHNIY)
1 57194U 23091AE  25040.39587191  .00010619  00000+0  55373-3 0  9997
2 57194  97.5786  97.3130 0015612  32.0756 328.1423 15.16041862 89342
SITRO-AIS 10 (BURDAEV)  
1 57199U 23091AK  25040.54071014  .00015327  00000+0  71675-3 0  9995
2 57199  97.5796  99.5296 0010632  18.8880 341.2747 15.19814565 89494
SITRO-AIS 9 (SHCHUKIN)  
1 57201U 23091AM  25040.34925464  .00014637  00000+0  68702-3 0  9994
2 57201  97.5793  99.2851 0010604  19.9275 340.2372 15.19697746 89468
SITRO-AIS 12 (SMIRENNIY)
1 57204U 23091AQ  25040.34717688  .00014160  00000+0  66105-3 0  9990
2 57204  97.5802  99.5130 0010388  14.0821 346.0701 15.19894946 89479
SITRO-AIS 11 (SHEFFER)  
1 57208U 23091AU  25040.31380451  .00014901  00000+0  69236-3 0  9996
2 57208  97.5798  99.5397 0010228  13.9537 346.1978 15.20046916 89472
VERONIKA                
1 58261U 23174F   25040.31575930  .00052940  00000+0  11652-2 0  9999
2 58261  97.4304 121.8781 0007488 121.2812 238.9170 15.43766399 69988
ROBUSTA-1E (ENSO)       
1 58470U 23185J   25040.51434682  .00040151  00000+0  96375-3 0  9990
2 58470  97.3924 113.0207 0009103 151.4534 208.7212 15.41216215 66451
SITRO-AIS 29            
1 59052U 24039B   25040.51852613  .00095103  00000+0  12784-2 0  9992
2 59052  97.4120  11.1228 0014703  86.7794 273.5143 15.57448799 53111
SITRO-AIS 30            
1 59053U 24039C   25040.37986411  .00084599  00000+0  11833-2 0  9992
2 59053  97.4112  10.8406 0014769  87.2693 273.0252 15.56414221 53076
SITRO-AIS 31            
1 59054U 24039D   25040.51677787  .00093853  00000+0  12753-2 0  9997
2 59054  97.4130  11.1227 0014586  88.9350 271.3576 15.57164779 53124
SITRO-AIS 33            
1 59055U 24039E   25040.55362609  .00091151  00000+0  12305-2 0  9998
2 59055  97.4115  11.2349 0014320  87.7607 272.5287 15.57355178 53129
SITRO-AIS 35            
1 59056U 24039F   25040.54347197  .00093613  00000+0  12566-2 0  9997
2 59056  97.4129  11.2471 0014289  89.9843 270.3050 15.57499231 53124
SITRO-AIS 32            
1 59057U 24039G   25040.52913298  .00091568  00000+0  12633-2 0  9999
2 59057  97.4129  11.1227 0014482  88.5634 271.7279 15.56765394 53113
SITRO-AIS 34            
1 59058U 24039H   25040.55403552  .00093686  00000+0  12660-2 0  9993
2 59058  97.4117  11.2376 0014262  88.0783 272.2106 15.57320058 53124
SITRO-AIS 36            
1 59059U 24039J   25040.53135427  .00089201  00000+0  12093-2 0  9993
2 59059  97.4108  11.2568 0013899  88.6306 271.6541 15.57255260 53128
SITRO-AIS 49            
1 59060U 24039K   25040.56545382  .00090269  00000+0  12459-2 0  9995
2 59060  97.4115  11.2189 0014257  88.0252 272.2636 15.56762679 53128
SITRO-AIS 50            
1 59061U 24039L   25040.54466044  .00095605  00000+0  12561-2 0  9994
2 59061  97.4105  11.3882 0013732  87.4545 272.8283 15.58076085 53130
SITRO-AIS 51            
1 59062U 24039M   25040.53474284  .00100393  00000+0  13039-2 0  9991
2 59062  97.4110  11.4002 0013746  87.2484 273.0344 15.58366810 53136
SITRO-AIS 52            
1 59063U 24039N   25040.51332067  .00098143  00000+0  12701-2 0  9996
2 59063  97.4119  11.4400 0013897  89.7592 270.5256 15.58468047 53131
SITRO-AIS 25            
1 59066U 24039R   25040.58790915  .00007019  00000+0  61847-3 0  9994
2 59066  95.3824 258.4285 0158242 243.3563 115.1378 14.87422727 51344
SITRO-AIS 26            
1 59067U 24039S   25040.53480118  .00007249  00000+0  64082-3 0  9990
2 59067  95.3826 258.3694 0158393 243.6730 114.8151 14.87278858 51334
SITRO-AIS 27            
1 59068U 24039T   25040.55524020  .00007738  00000+0  67959-3 0  9993
2 59068  95.3829 258.4656 0157650 243.1322 115.3711 14.87585160 51340
SITRO-AIS 28            
1 59071U 24039U   25040.54558856  .00008028  00000+0  70451-3 0  9994
2 59071  95.3829 258.4783 0157517 243.1026 115.4026 14.87624440 51343
GRBBETA                 
1 60237U 24128C   25040.55747583  .00006008  00000+0  47889-3 0  9992
2 60237  61.9930 137.5066 0039708  29.4465 330.8850 15.00781879 32179
OOV-CUBE (TUBSAT-30)    
1 60240U 24128F   25039.98278463  .00003904  00000+0  33209-3 0  9990
2 60240  61.9969 140.8846 0038071  25.4822 334.8133 14.99033110 32075
ROBUSTA-3A (MEDITERRAN*)
1 60243U 24128J   25040.38532469  .00008941  00000+0  68944-3 0  9998
2 60243  61.9900 138.2570 0038152  21.4592 338.8088 15.01646178 32158
LASARSAT                
1 62391U 24247Q   25039.52228061  .00021416  00000+0  98225-3 0  9997
2 62391  44.9926  96.6536 0003969   7.8447 352.2494 15.20144343  7608
CROCUBE                 
1 62394U 24247T   25039.52408760  .00022171  00000+0  10168-2 0  9994
2 62394  44.9920  96.6643 0004468  12.7381 347.3612 15.20126578  7608
